{"type": "FeatureCollection", "features": [{"type": "Feature", "geometry": {"type": "LineString", "coordinates": [[16.11511535093387, 46.658184250225304], [16.1151149642238, 46.6581839839623], [16.1151149642238, 46.6581837176993], [16.11511457751373, 46.6581834514363], [16.11511457751373, 46.6581831851733], [16.11511457751373, 46.6581829189103], [16.11511457751373, 46.6581826526473], [16.11511419080366, 46.6581823863843], [16.11511419080366, 46.658182120121296], [16.11511380409359, 46.658181853858295], [16.11511380409359, 46.658181587595294], [16.11511380409359, 46.65818132133229], [16.11511380409359, 46.65818105506929], [16.11511380409359, 46.65818078880629], [16.11511341738352, 46.65818052254329], [16.11511341738352, 46.65818025628029], [16.11511341738352, 46.65817999001729], [16.11511303067345, 46.65817972375429], [16.11511303067345, 46.658179457491286], [16.11511303067345, 46.658179191228285], [16.11511303067345, 46.658178924965284], [16.11511264396338, 46.65817865870228], [16.11511264396338, 46.65817839243928], [16.11511264396338, 46.65817812617628], [16.11511264396338, 46.65817785991328], [16.11511225725331, 46.65817759365028], [16.11511225725331, 46.65817732738728], [16.11511225725331, 46.65817706112428], [16.11511225725331, 46.65817679486128], [16.11511225725331, 46.658176528598275], [16.115111870543238, 46.658176262335274], [16.115111870543238, 46.65817599607227], [16.115111870543238, 46.65817572980927], [16.115111483833168, 46.65817546354627], [16.115111483833168, 46.65817519728327], [16.115111483833168, 46.65817493102027], [16.115111097123098, 46.65817466475727], [16.115111097123098, 46.65817439849427], [16.115111097123098, 46.65817413223127], [16.115110710413028, 46.658173865968266], [16.115110710413028, 46.658173599705265], [16.115110710413028, 46.658173333442264], [16.115110323702957, 46.65817306717926], [16.115110323702957, 46.65817280091626], [16.115110323702957, 46.65817253465326], [16.115109936992887, 46.65817226839026], [16.115109936992887, 46.65817200212726], [16.115109936992887, 46.65817173586426], [16.115109936992887, 46.65817146960126], [16.115109550282817, 46.658171203338256], [16.115109550282817, 46.658170937075255], [16.115109550282817, 46.658170670812254], [16.115109163572747, 46.65817040454925], [16.115109163572747, 46.65817013828625], [16.115109163572747, 46.65816987202325], [16.115109163572747, 46.65816960576025], [16.115108776862677, 46.65816933949725], [16.115108776862677, 46.65816907323425], [16.115108776862677, 46.65816880697125], [16.115108390152606, 46.658168540708246], [16.115108390152606, 46.658168274445245], [16.115108003442536, 46.658168008182244], [16.115108003442536, 46.65816774191924], [16.115108003442536, 46.65816747565624], [16.115108003442536, 46.65816720939324], [16.115107616732466, 46.65816694313024], [16.115107616732466, 46.65816667686724], [16.115107616732466, 46.65816641060424], [16.115107616732466, 46.65816614434124], [16.115107616732466, 46.658165878078236], [16.115107230022396, 46.658165611815235], [16.115107230022396, 46.658165345552234], [16.115107230022396, 46.65816507928923], [16.115107230022396, 46.65816481302623], [16.115106843312326, 46.65816454676323], [16.115106843312326, 46.65816428050023], [16.115106456602255, 46.65816401423723], [16.115106456602255, 46.65816374797423], [16.115106456602255, 46.65816348171123], [16.115106456602255, 46.658163215448226], [16.115106069892185, 46.658162949185225], [16.115106069892185, 46.658162682922224], [16.115106069892185, 46.65816241665922], [16.115106069892185, 46.65816215039622], [16.115105683182115, 46.65816188413322], [16.115105683182115, 46.65816161787022], [16.115105683182115, 46.65816135160722], [16.115105683182115, 46.65816108534422], [16.115105296472045, 46.65816081908122], [16.115105296472045, 46.65816055281822], [16.115105296472045, 46.658160286555216], [16.115105296472045, 46.658160020292215], [16.115104909761975, 46.658159754029214], [16.115104909761975, 46.65815948776621], [16.115104523051905, 46.65815922150321], [16.115104523051905, 46.65815895524021], [16.115104136341834, 46.65815868897721], [16.115104136341834, 46.65815842271421], [16.115104136341834, 46.65815815645121], [16.115103749631764, 46.65815789018821], [16.115103749631764, 46.658157623925206], [16.115103362921694, 46.658157357662205], [16.115103362921694, 46.658157091399204], [16.115103362921694, 46.6581568251362], [16.115103362921694, 46.6581565588732], [16.115103362921694, 46.6581562926102], [16.115103362921694, 46.6581560263472], [16.115102976211624, 46.6581557600842], [16.115102976211624, 46.6581554938212], [16.115102976211624, 46.6581552275582], [16.115102589501554, 46.658154961295196], [16.115102589501554, 46.658154695032195], [16.115102589501554, 46.658154428769194], [16.115102202791483, 46.65815416250619], [16.115102202791483, 46.65815389624319], [16.115101816081413, 46.65815362998019], [16.115101816081413, 46.65815336371719], [16.115101816081413, 46.65815309745419], [16.115101816081413, 46.65815283119119], [16.115101429371343, 46.65815256492819], [16.115101429371343, 46.658152298665186], [16.115101042661273, 46.658152032402185], [16.115101042661273, 46.658151766139184], [16.115101042661273, 46.65815149987618], [16.115101042661273, 46.65815123361318], [16.115100655951203, 46.65815096735018], [16.115100655951203, 46.65815070108718], [16.115100655951203, 46.65815043482418], [16.115100655951203, 46.65815016856118], [16.115100269241132, 46.65814990229818], [16.115100269241132, 46.658149636035176], [16.115100269241132, 46.658149369772175], [16.115099882531062, 46.658149103509174], [16.115099882531062, 46.65814883724617], [16.115099882531062, 46.65814857098317], [16.115099495820992, 46.65814830472017], [16.115099495820992, 46.65814803845717], [16.115099495820992, 46.65814777219417], [16.115099495820992, 46.65814750593117], [16.115099109110922, 46.65814723966817], [16.115099109110922, 46.65814697340517], [16.115099109110922, 46.658146707142166], [16.11509872240085, 46.658146440879165], [16.11509872240085, 46.658146174616164], [16.11509833569078, 46.65814590835316], [16.11509833569078, 46.65814564209016], [16.11509794898071, 46.65814537582716], [16.11509794898071, 46.65814510956416], [16.11509794898071, 46.65814484330116], [16.11509756227064, 46.65814457703816], [16.11509756227064, 46.65814431077516], [16.11509756227064, 46.658144044512156], [16.11509756227064, 46.658143778249155], [16.11509756227064, 46.658143511986154], [16.11509717556057, 46.65814324572315], [16.11509717556057, 46.65814297946015], [16.1150967888505, 46.65814271319715], [16.1150967888505, 46.65814244693415], [16.1150967888505, 46.65814218067115], [16.1150967888505, 46.65814191440815], [16.1150967888505, 46.65814164814515], [16.11509640214043, 46.658141381882146], [16.11509640214043, 46.658141115619145], [16.11509640214043, 46.658140849356144], [16.11509640214043, 46.65814058309314], [16.11509601543036, 46.65814031683014], [16.11509601543036, 46.65814005056714], [16.11509562872029, 46.65813978430414], [16.11509562872029, 46.65813951804114], [16.11509562872029, 46.65813925177814], [16.11509524201022, 46.65813898551514], [16.11509524201022, 46.658138719252136], [16.11509524201022, 46.658138452989135], [16.11509524201022, 46.658138186726134], [16.11509485530015, 46.65813792046313], [16.11509485530015, 46.65813765420013], [16.11509446859008, 46.65813738793713], [16.11509446859008, 46.65813712167413], [16.11509446859008, 46.65813685541113], [16.11509446859008, 46.65813658914813], [16.11509408188001, 46.65813632288513], [16.11509408188001, 46.658136056622126], [16.11509408188001, 46.658135790359125], [16.11509408188001, 46.658135524096124], [16.11509408188001, 46.65813525783312], [16.11509408188001, 46.65813499157012], [16.11509369516994, 46.65813472530712], [16.11509369516994, 46.65813445904412]]}, "properties": {"feature_type": "roads", "confidence": 0.0032670029904693365}}, {"type": "Feature", "geometry": {"type": "LineString", "coordinates": [[16.11509176161959, 46.658130465099106], [16.11509176161959, 46.658130198836105], [16.11509176161959, 46.658129932573104], [16.115091374909518, 46.6581296663101], [16.115091374909518, 46.6581294000471], [16.115091374909518, 46.6581291337841], [16.115090988199448, 46.6581288675211], [16.115090988199448, 46.6581286012581], [16.115090988199448, 46.6581283349951], [16.115090988199448, 46.6581280687321], [16.115090988199448, 46.658127802469096], [16.115090988199448, 46.658127536206095], [16.115090988199448, 46.658127269943094], [16.115090601489378, 46.65812700368009], [16.115090601489378, 46.65812673741709], [16.115090601489378, 46.65812647115409], [16.115090601489378, 46.65812620489109], [16.115090214779308, 46.65812593862809], [16.115090214779308, 46.65812567236509], [16.115090214779308, 46.65812540610209]]}, "properties": {"feature_type": "roads", "confidence": 0.0032670029904693365}}, {"type": "Feature", "geometry": {"type": "LineString", "coordinates": [[16.115089054649097, 46.658122210946075], [16.115088667939027, 46.658121944683074], [16.115088667939027, 46.65812167842007], [16.115088281228957, 46.65812141215707], [16.115088281228957, 46.65812114589407], [16.115087894518886, 46.65812087963107], [16.115087894518886, 46.65812061336807], [16.115087894518886, 46.65812034710507], [16.115087894518886, 46.65812008084207], [16.115087894518886, 46.65811981457907], [16.115087507808816, 46.658119548316066], [16.115087507808816, 46.658119282053065], [16.115087507808816, 46.658119015790064], [16.115087507808816, 46.65811874952706], [16.115087121098746, 46.65811848326406], [16.115087121098746, 46.65811821700106], [16.115086734388676, 46.65811795073806], [16.115086734388676, 46.65811768447506], [16.115086734388676, 46.65811741821206], [16.115086734388676, 46.65811715194906], [16.115086734388676, 46.658116885686056], [16.115086347678606, 46.658116619423055], [16.115086347678606, 46.658116353160054], [16.115085960968536, 46.65811608689705], [16.115085960968536, 46.65811582063405], [16.115085960968536, 46.65811555437105], [16.115085574258465, 46.65811528810805], [16.115085574258465, 46.65811502184505], [16.115085187548395, 46.65811475558205], [16.115084800838325, 46.65811448931905]]}, "properties": {"feature_type": "roads", "confidence": 0.0032670029904693365}}], "crs": {"type": "name", "properties": {"name": "EPSG:4326"}}}